{
  "type": "FeatureCollection",
  "features": [
    {
      "type": "Feature",
      "properties": {
        "norad_id": 37846,
        "name": "GSAT0101 (GALILEO-PFM)",
        "group": "gnss",
        "lat": -56.997223089127644,
        "lon": -106.2390749542197,
        "alt_km": 23222.025692366387,
        "timestamp": "2025-12-19T18:58:41.831096+00:00",
        "meta_object_name": "GSAT0101 (GALILEO-PFM)",
        "meta_object_id": "2011-060A",
        "meta_epoch": "2025-12-18T18:24:05.977440",
        "meta_mean_motion": 1.70475828,
        "meta_eccentricity": 0.00031616,
        "meta_inclination": 57.0514,
        "meta_ra_of_asc_node": 346.6564,
        "meta_arg_of_pericenter": 318.6876,
        "meta_mean_anomaly": 41.3019,
        "meta_ephemeris_type": 0,
        "meta_classification_type": "U",
        "meta_norad_cat_id": 37846,
        "meta_element_set_no": 999,
        "meta_rev_at_epoch": 8804,
        "meta_bstar": 0,
        "meta_mean_motion_dot": -7.5e-07,
        "meta_mean_motion_ddot": 0,
        "tle_line1": "1 37846U 11060A   25352.76673585 -.00000075  00000+0  00000+0 0  9991",
        "tle_line2": "2 37846  57.0514 346.6564 0003161 318.6876  41.3019  1.70475828 88046"
      },
      "geometry": {
        "type": "Point",
        "coordinates": [
          -106.2390749542197,
          -56.997223089127644
        ]
      }
    },
    {
      "type": "Feature",
      "properties": {
        "norad_id": 37847,
        "name": "GSAT0102 (GALILEO-FM2)",
        "group": "gnss",
        "lat": -37.17467971417329,
        "lon": -42.84417793706383,
        "alt_km": 23211.40992292762,
        "timestamp": "2025-12-19T18:58:41.831109+00:00",
        "meta_object_name": "GSAT0102 (GALILEO-FM2)",
        "meta_object_id": "2011-060B",
        "meta_epoch": "2025-12-18T09:18:10.933920",
        "meta_mean_motion": 1.7047603,
        "meta_eccentricity": 0.0005099,
        "meta_inclination": 57.0522,
        "meta_ra_of_asc_node": 346.6671,
        "meta_arg_of_pericenter": 311.9548,
        "meta_mean_anomaly": 220.8374,
        "meta_ephemeris_type": 0,
        "meta_classification_type": "U",
        "meta_norad_cat_id": 37847,
        "meta_element_set_no": 999,
        "meta_rev_at_epoch": 8804,
        "meta_bstar": 0,
        "meta_mean_motion_dot": -7.6e-07,
        "meta_mean_motion_ddot": 0,
        "tle_line1": "1 37847U 11060B   25352.38762655 -.00000076  00000+0  00000+0 0  9998",
        "tle_line2": "2 37847  57.0522 346.6671 0005099 311.9548 220.8374  1.70476030 88043"
      },
      "geometry": {
        "type": "Point",
        "coordinates": [
          -42.84417793706383,
          -37.17467971417329
        ]
      }
    },
    {
      "type": "Feature",
      "properties": {
        "norad_id": 37867,
        "name": "COSMOS 2476 (744)",
        "group": "gnss",
        "lat": 49.62373915704665,
        "lon": 111.87291284045507,
        "alt_km": 19186.110439529213,
        "timestamp": "2025-12-19T18:58:41.831133+00:00",
        "meta_object_name": "COSMOS 2476 (744)",
        "meta_object_id": "2011-064A",
        "meta_epoch": "2025-12-19T06:05:26.552256",
        "meta_mean_motion": 2.13103916,
        "meta_eccentricity": 0.00243207,
        "meta_inclination": 65.1662,
        "meta_ra_of_asc_node": 78.9509,
        "meta_arg_of_pericenter": 234.6548,
        "meta_mean_anomaly": 130.4776,
        "meta_ephemeris_type": 0,
        "meta_classification_type": "U",
        "meta_norad_cat_id": 37867,
        "meta_element_set_no": 999,
        "meta_rev_at_epoch": 10993,
        "meta_bstar": 0,
        "meta_mean_motion_dot": -3e-07,
        "meta_mean_motion_ddot": 0,
        "tle_line1": "1 37867U 11064A   25353.25377954 -.00000030  00000+0  00000+0 0  9995",
        "tle_line2": "2 37867  65.1662  78.9509 0024320 234.6548 130.4776  2.13103916109936"
      },
      "geometry": {
        "type": "Point",
        "coordinates": [
          111.87291284045507,
          49.62373915704665
        ]
      }
    },
    {
      "type": "Feature",
      "properties": {
        "norad_id": 37868,
        "name": "COSMOS 2477 (745)",
        "group": "gnss",
        "lat": -50.357899554740584,
        "lon": -67.07745293994732,
        "alt_km": 19081.570599994153,
        "timestamp": "2025-12-19T18:58:41.831146+00:00",
        "meta_object_name": "COSMOS 2477 (745)",
        "meta_object_id": "2011-064B",
        "meta_epoch": "2025-12-18T12:02:16.818720",
        "meta_mean_motion": 2.13102921,
        "meta_eccentricity": 0.00212144,
        "meta_inclination": 65.1723,
        "meta_ra_of_asc_node": 79.0538,
        "meta_arg_of_pericenter": 234.8854,
        "meta_mean_anomaly": 94.0943,
        "meta_ephemeris_type": 0,
        "meta_classification_type": "U",
        "meta_norad_cat_id": 37868,
        "meta_element_set_no": 999,
        "meta_rev_at_epoch": 10990,
        "meta_bstar": 0,
        "meta_mean_motion_dot": -3.8e-07,
        "meta_mean_motion_ddot": 0,
        "tle_line1": "1 37868U 11064B   25352.50158355 -.00000038  00000+0  00000+0 0  9993",
        "tle_line2": "2 37868  65.1723  79.0538 0021214 234.8854  94.0943  2.13102921109903"
      },
      "geometry": {
        "type": "Point",
        "coordinates": [
          -67.07745293994732,
          -50.357899554740584
        ]
      }
    },
    {
      "type": "Feature",
      "properties": {
        "norad_id": 37869,
        "name": "COSMOS 2475 (743)",
        "group": "gnss",
        "lat": -12.40662357024996,
        "lon": -95.12524250783702,
        "alt_km": 19093.354179208094,
        "timestamp": "2025-12-19T18:58:41.831158+00:00",
        "meta_object_name": "COSMOS 2475 (743)",
        "meta_object_id": "2011-064C",
        "meta_epoch": "2025-12-18T05:19:14.657088",
        "meta_mean_motion": 2.13101609,
        "meta_eccentricity": 0.0026433,
        "meta_inclination": 65.1789,
        "meta_ra_of_asc_node": 79.0834,
        "meta_arg_of_pericenter": 248.8457,
        "meta_mean_anomaly": 181.3342,
        "meta_ephemeris_type": 0,
        "meta_classification_type": "U",
        "meta_norad_cat_id": 37869,
        "meta_element_set_no": 999,
        "meta_rev_at_epoch": 10991,
        "meta_bstar": 0,
        "meta_mean_motion_dot": -4.1e-07,
        "meta_mean_motion_ddot": 0,
        "tle_line1": "1 37869U 11064C   25352.22169742 -.00000041  00000+0  00000+0 0  9999",
        "tle_line2": "2 37869  65.1789  79.0834 0026433 248.8457 181.3342  2.13101609109913"
      },
      "geometry": {
        "type": "Point",
        "coordinates": [
          -95.12524250783702,
          -12.40662357024996
        ]
      }
    },
    {
      "type": "Feature",
      "properties": {
        "norad_id": 37948,
        "name": "BEIDOU-2 IGSO-5 (C10)",
        "group": "gnss",
        "lat": -9.10435119458412,
        "lon": 102.03524280126365,
        "alt_km": 35380.55096292668,
        "timestamp": "2025-12-19T18:58:41.831170+00:00",
        "meta_object_name": "BEIDOU-2 IGSO-5 (C10)",
        "meta_object_id": "2011-073A",
        "meta_epoch": "2025-12-18T16:23:51.533376",
        "meta_mean_motion": 1.00290152,
        "meta_eccentricity": 0.01099443,
        "meta_inclination": 48.0091,
        "meta_ra_of_asc_node": 273.7856,
        "meta_arg_of_pericenter": 222.3449,
        "meta_mean_anomaly": 290.7013,
        "meta_ephemeris_type": 0,
        "meta_classification_type": "U",
        "meta_norad_cat_id": 37948,
        "meta_element_set_no": 999,
        "meta_rev_at_epoch": 5132,
        "meta_bstar": 0,
        "meta_mean_motion_dot": -1.7e-06,
        "meta_mean_motion_ddot": 0,
        "tle_line1": "1 37948U 11073A   25352.68323534 -.00000170  00000+0  00000+0 0  9991",
        "tle_line2": "2 37948  48.0091 273.7856 0109944 222.3449 290.7013  1.00290152 51329"
      },
      "geometry": {
        "type": "Point",
        "coordinates": [
          102.03524280126365,
          -9.10435119458412
        ]
      }
    },
    {
      "type": "Feature",
      "properties": {
        "norad_id": 37951,
        "name": "LUCH 5A (SDCM/PRN 140)",
        "group": "gnss",
        "lat": 8.05928454585389,
        "lon": -179.53252103854916,
        "alt_km": 35784.041331322085,
        "timestamp": "2025-12-19T18:58:41.831182+00:00",
        "meta_object_name": "LUCH 5A (SDCM/PRN 140)",
        "meta_object_id": "2011-074B",
        "meta_epoch": "2025-12-18T22:39:00.862272",
        "meta_mean_motion": 1.00269042,
        "meta_eccentricity": 0.00050851,
        "meta_inclination": 8.2948,
        "meta_ra_of_asc_node": 76.4925,
        "meta_arg_of_pericenter": 189.1634,
        "meta_mean_anomaly": 328.979,
        "meta_ephemeris_type": 0,
        "meta_classification_type": "U",
        "meta_norad_cat_id": 37951,
        "meta_element_set_no": 999,
        "meta_rev_at_epoch": 5124,
        "meta_bstar": 0,
        "meta_mean_motion_dot": -3.1e-07,
        "meta_mean_motion_ddot": 0,
        "tle_line1": "1 37951U 11074B   25352.94375998 -.00000031  00000+0  00000+0 0  9992",
        "tle_line2": "2 37951   8.2948  76.4925 0005085 189.1634 328.9790  1.00269042 51245"
      },
      "geometry": {
        "type": "Point",
        "coordinates": [
          -179.53252103854916,
          8.05928454585389
        ]
      }
    }
  ]
}